{"fetched_at":"2026-07-21T07:06:26.959Z","source":"https://celestrak.org/NORAD/elements/gp.php?GROUP=kuiper&FORMAT=JSON","constellation":"kuiper","records":[{"OBJECT_NAME":"KUIPER-00605","OBJECT_ID":"2026-118X","EPOCH":"2026-07-20T22:00:01.999584","CLASSIFICATION_TYPE":"U","MEAN_MOTION":14.91514109,"ECCENTRICITY":0.0004579,"INCLINATION":51.8961,"RA_OF_ASC_NODE":254.3023,"ARG_OF_PERICENTER":25.5581,"MEAN_ANOMALY":72.5309,"EPHEMERIS_TYPE":0,"NORAD_CAT_ID":69288,"ELEMENT_SET_NO":999,"REV_AT_EPOCH":445,"BSTAR":-0.0029010258,"MEAN_MOTION_DOT":-0.00029477,"MEAN_MOTION_DDOT":0},{"OBJECT_NAME":"KUIPER-00606","OBJECT_ID":"2026-118Y","EPOCH":"2026-07-20T22:00:01.999584","CLASSIFICATION_TYPE":"U","MEAN_MOTION":15.25358574,"ECCENTRICITY":0.00023884,"INCLINATION":51.8785,"RA_OF_ASC_NODE":250.2647,"ARG_OF_PERICENTER":295.8049,"MEAN_ANOMALY":285.1459,"EPHEMERIS_TYPE":0,"NORAD_CAT_ID":69289,"ELEMENT_SET_NO":999,"REV_AT_EPOCH":542,"BSTAR":-0.074682227,"MEAN_MOTION_DOT":-0.01723837,"MEAN_MOTION_DDOT":0},{"OBJECT_NAME":"KUIPER-00607","OBJECT_ID":"2026-118Z","EPOCH":"2026-07-20T09:41:16.179072","CLASSIFICATION_TYPE":"U","MEAN_MOTION":15.38055656,"ECCENTRICITY":0.00050604,"INCLINATION":51.8665,"RA_OF_ASC_NODE":252.5363,"ARG_OF_PERICENTER":296.3958,"MEAN_ANOMALY":63.6509,"EPHEMERIS_TYPE":0,"NORAD_CAT_ID":69290,"ELEMENT_SET_NO":999,"REV_AT_EPOCH":909,"BSTAR":0.00043740643,"MEAN_MOTION_DOT":0.00016285,"MEAN_MOTION_DDOT":0},{"OBJECT_NAME":"KUIPER-00608","OBJECT_ID":"2026-118AA","EPOCH":"2026-07-20T10:16:15.525408","CLASSIFICATION_TYPE":"U","MEAN_MOTION":15.33365755,"ECCENTRICITY":0.00081782,"INCLINATION":51.8596,"RA_OF_ASC_NODE":253.3933,"ARG_OF_PERICENTER":320.5048,"MEAN_ANOMALY":39.534,"EPHEMERIS_TYPE":0,"NORAD_CAT_ID":69291,"ELEMENT_SET_NO":999,"REV_AT_EPOCH":908,"BSTAR":-0.00081895757,"MEAN_MOTION_DOT":-0.00027115,"MEAN_MOTION_DDOT":0},{"OBJECT_NAME":"KUIPER-00610","OBJECT_ID":"2026-118AB","EPOCH":"2026-07-20T22:00:01.999584","CLASSIFICATION_TYPE":"U","MEAN_MOTION":15.35294764,"ECCENTRICITY":0.00010902,"INCLINATION":51.8716,"RA_OF_ASC_NODE":249.7815,"ARG_OF_PERICENTER":12.7231,"MEAN_ANOMALY":89.3137,"EPHEMERIS_TYPE":0,"NORAD_CAT_ID":69292,"ELEMENT_SET_NO":999,"REV_AT_EPOCH":466,"BSTAR":-0.0080416694,"MEAN_MOTION_DOT":-0.00270419,"MEAN_MOTION_DDOT":0},{"OBJECT_NAME":"KUIPER-00613","OBJECT_ID":"2026-118AC","EPOCH":"2026-07-20T22:00:01.999584","CLASSIFICATION_TYPE":"U","MEAN_MOTION":14.90324317,"ECCENTRICITY":0.00088075,"INCLINATION":51.8959,"RA_OF_ASC_NODE":254.2743,"ARG_OF_PERICENTER":328.4704,"MEAN_ANOMALY":68.5447,"EPHEMERIS_TYPE":0,"NORAD_CAT_ID":69293,"ELEMENT_SET_NO":999,"REV_AT_EPOCH":512,"BSTAR":-0.00380511,"MEAN_MOTION_DOT":-0.00037438,"MEAN_MOTION_DDOT":0},{"OBJECT_NAME":"KUIPER-00618","OBJECT_ID":"2026-118AD","EPOCH":"2026-07-20T20:16:45.537600","CLASSIFICATION_TYPE":"U","MEAN_MOTION":15.37641455,"ECCENTRICITY":0.00009439,"INCLINATION":51.8713,"RA_OF_ASC_NODE":250.2585,"ARG_OF_PERICENTER":353.8009,"MEAN_ANOMALY":6.2966,"EPHEMERIS_TYPE":0,"NORAD_CAT_ID":69294,"ELEMENT_SET_NO":999,"REV_AT_EPOCH":916,"BSTAR":0.00041906459,"MEAN_MOTION_DOT":0.00015368,"MEAN_MOTION_DDOT":0},{"OBJECT_NAME":"KUIPER-00620","OBJECT_ID":"2026-118AE","EPOCH":"2026-07-20T22:00:01.999584","CLASSIFICATION_TYPE":"U","MEAN_MOTION":15.35847472,"ECCENTRICITY":0.00013379,"INCLINATION":51.8719,"RA_OF_ASC_NODE":249.7785,"ARG_OF_PERICENTER":277.1662,"MEAN_ANOMALY":190.8854,"EPHEMERIS_TYPE":0,"NORAD_CAT_ID":69295,"ELEMENT_SET_NO":999,"REV_AT_EPOCH":232,"BSTAR":-0.042926796,"MEAN_MOTION_DOT":-0.01383466,"MEAN_MOTION_DDOT":0},{"OBJECT_NAME":"KUIPER-00423","OBJECT_ID":"2026-140A","EPOCH":"2026-07-20T09:05:38.112576","CLASSIFICATION_TYPE":"U","MEAN_MOTION":15.38560785,"ECCENTRICITY":0.0013202,"INCLINATION":51.8792,"RA_OF_ASC_NODE":237.9442,"ARG_OF_PERICENTER":289.586,"MEAN_ANOMALY":70.3702,"EPHEMERIS_TYPE":0,"NORAD_CAT_ID":69592,"ELEMENT_SET_NO":999,"REV_AT_EPOCH":634,"BSTAR":0.00043450976,"MEAN_MOTION_DOT":0.00016485,"MEAN_MOTION_DDOT":0},{"OBJECT_NAME":"KUIPER-00428","OBJECT_ID":"2026-140B","EPOCH":"2026-07-20T19:30:38.200896","CLASSIFICATION_TYPE":"U","MEAN_MOTION":15.3702924,"ECCENTRICITY":0.00081227,"INCLINATION":51.8796,"RA_OF_ASC_NODE":236.3415,"ARG_OF_PERICENTER":48.9308,"MEAN_ANOMALY":311.238,"EPHEMERIS_TYPE":0,"NORAD_CAT_ID":69593,"ELEMENT_SET_NO":999,"REV_AT_EPOCH":640,"BSTAR":0.00036847211,"MEAN_MOTION_DOT":0.00013201,"MEAN_MOTION_DDOT":0},{"OBJECT_NAME":"KUIPER-00481","OBJECT_ID":"2026-140C","EPOCH":"2026-07-20T14:05:13.472736","CLASSIFICATION_TYPE":"U","MEAN_MOTION":15.37897687,"ECCENTRICITY":0.0010893,"INCLINATION":51.8786,"RA_OF_ASC_NODE":237.0855,"ARG_OF_PERICENTER":310.2671,"MEAN_ANOMALY":49.7363,"EPHEMERIS_TYPE":0,"NORAD_CAT_ID":69594,"ELEMENT_SET_NO":999,"REV_AT_EPOCH":637,"BSTAR":0.0001245,"MEAN_MOTION_DOT":0.00004324,"MEAN_MOTION_DDOT":0},{"OBJECT_NAME":"KUIPER-00490","OBJECT_ID":"2026-140D","EPOCH":"2026-07-20T19:00:05.488416","CLASSIFICATION_TYPE":"U","MEAN_MOTION":15.37966683,"ECCENTRICITY":0.00073509,"INCLINATION":51.8758,"RA_OF_ASC_NODE":236.1933,"ARG_OF_PERICENTER":358.5273,"MEAN_ANOMALY":1.5691,"EPHEMERIS_TYPE":0,"NORAD_CAT_ID":69595,"ELEMENT_SET_NO":999,"REV_AT_EPOCH":640,"BSTAR":0.00044485037,"MEAN_MOTION_DOT":0.00016527,"MEAN_MOTION_DDOT":0},{"OBJECT_NAME":"KUIPER-00493","OBJECT_ID":"2026-140E","EPOCH":"2026-07-20T22:00:01.999584","CLASSIFICATION_TYPE":"U","MEAN_MOTION":15.29591528,"ECCENTRICITY":0.0008782,"INCLINATION":51.8826,"RA_OF_ASC_NODE":236.0105,"ARG_OF_PERICENTER":57.2904,"MEAN_ANOMALY":70.957,"EPHEMERIS_TYPE":0,"NORAD_CAT_ID":69596,"ELEMENT_SET_NO":999,"REV_AT_EPOCH":582,"BSTAR":0.0014021126,"MEAN_MOTION_DOT":0.00040696,"MEAN_MOTION_DDOT":0},{"OBJECT_NAME":"KUIPER-00496","OBJECT_ID":"2026-140F","EPOCH":"2026-07-20T11:05:12.047136","CLASSIFICATION_TYPE":"U","MEAN_MOTION":15.34039227,"ECCENTRICITY":0.00109797,"INCLINATION":51.8772,"RA_OF_ASC_NODE":238.4717,"ARG_OF_PERICENTER":68.8851,"MEAN_ANOMALY":291.3307,"EPHEMERIS_TYPE":0,"NORAD_CAT_ID":69597,"ELEMENT_SET_NO":999,"REV_AT_EPOCH":634,"BSTAR":0.00014757112,"MEAN_MOTION_DOT":0.00004563,"MEAN_MOTION_DDOT":0},{"OBJECT_NAME":"KUIPER-00513","OBJECT_ID":"2026-140G","EPOCH":"2026-07-20T11:06:27.039744","CLASSIFICATION_TYPE":"U","MEAN_MOTION":15.38226965,"ECCENTRICITY":0.00078389,"INCLINATION":51.8789,"RA_OF_ASC_NODE":237.753,"ARG_OF_PERICENTER":356.1197,"MEAN_ANOMALY":3.9728,"EPHEMERIS_TYPE":0,"NORAD_CAT_ID":69598,"ELEMENT_SET_NO":999,"REV_AT_EPOCH":635,"BSTAR":0.00030798981,"MEAN_MOTION_DOT":0.00011412,"MEAN_MOTION_DDOT":0},{"OBJECT_NAME":"KUIPER-00516","OBJECT_ID":"2026-140H","EPOCH":"2026-07-20T09:47:35.011968","CLASSIFICATION_TYPE":"U","MEAN_MOTION":15.37661206,"ECCENTRICITY":0.00073966,"INCLINATION":51.8781,"RA_OF_ASC_NODE":238.1256,"ARG_OF_PERICENTER":13.113,"MEAN_ANOMALY":347.0048,"EPHEMERIS_TYPE":0,"NORAD_CAT_ID":69599,"ELEMENT_SET_NO":999,"REV_AT_EPOCH":634,"BSTAR":0.00020438938,"MEAN_MOTION_DOT":0.00007293,"MEAN_MOTION_DDOT":0}]}
