KUIPER-00605            
1 69288U 26118X   26201.91668981 -.00029477  00000+0 -29010-2 0  9994
2 69288  51.8961 254.3023 0004579  25.5581  72.5309 14.91514109  4459
KUIPER-00606            
1 69289U 26118Y   26201.91668981 -.01723837  00000+0 -74682-1 0  9991
2 69289  51.8785 250.2647 0002388 295.8049 285.1459 15.25358574  5424
KUIPER-00607            
1 69290U 26118Z   26201.40365948  .00016285  00000+0  43741-3 0  9997
2 69290  51.8665 252.5363 0005060 296.3958  63.6509 15.38055656  9099
KUIPER-00608            
1 69291U 26118AA  26201.42795747 -.00027115  00000+0 -81896-3 0  9993
2 69291  51.8596 253.3933 0008178 320.5048  39.5340 15.33365755  9081
KUIPER-00610            
1 69292U 26118AB  26201.91668981 -.00270419  00000+0 -80417-2 0  9991
2 69292  51.8716 249.7815 0001090  12.7231  89.3137 15.35294764  4663
KUIPER-00613            
1 69293U 26118AC  26201.91668981 -.00037438  00000+0 -38051-2 0  9991
2 69293  51.8959 254.2743 0008807 328.4704  68.5447 14.90324317  5122
KUIPER-00618            
1 69294U 26118AD  26201.84497150  .00015368  00000+0  41906-3 0  9992
2 69294  51.8713 250.2585 0000943 353.8009   6.2966 15.37641455  9164
KUIPER-00620            
1 69295U 26118AE  26201.91668981 -.01383466  00000+0 -42927-1 0  9995
2 69295  51.8719 249.7785 0001337 277.1662 190.8854 15.35847472  2329
KUIPER-00423            
1 69592U 26140A   26201.37891334  .00016485  00000+0  43451-3 0  9996
2 69592  51.8792 237.9442 0013202 289.5860  70.3702 15.38560785  6342
KUIPER-00428            
1 69593U 26140B   26201.81294214  .00013201  00000+0  36847-3 0  9994
2 69593  51.8796 236.3415 0008122  48.9308 311.2380 15.37029240  6400
KUIPER-00481            
1 69594U 26140C   26201.58696149  .00004324  00000+0  12450-3 0  9992
2 69594  51.8786 237.0855 0010893 310.2671  49.7363 15.37897687  6370
KUIPER-00490            
1 69595U 26140D   26201.79173019  .00016527  00000+0  44485-3 0  9993
2 69595  51.8758 236.1933 0007350 358.5273   1.5691 15.37966683  6401
KUIPER-00493            
1 69596U 26140E   26201.91668981  .00040696  00000+0  14021-2 0  9991
2 69596  51.8826 236.0105 0008782  57.2904  70.9570 15.29591528  5826
KUIPER-00496            
1 69597U 26140F   26201.46194499  .00004563  00000+0  14757-3 0  9990
2 69597  51.8772 238.4717 0010979  68.8851 291.3307 15.34039227  6346
KUIPER-00513            
1 69598U 26140G   26201.46281296  .00011412  00000+0  30799-3 0  9998
2 69598  51.8789 237.7530 0007838 356.1197   3.9728 15.38226965  6352
KUIPER-00516            
1 69599U 26140H   26201.40804412  .00007293  00000+0  20439-3 0  9996
2 69599  51.8781 238.1256 0007396  13.1130 347.0048 15.37661206  6347
